39074,GLOBALSTAR M094,2013,114.08,700.0,+,52.0,Active,1,LEO,Kazakhstan,Globalstar,Commercial,Communications,Soyuz,1 39074U 13005C   24135.48527600 -.00000070  00000+0  18844-3 0  9994,2 39074  51.9965 316.0474 0001071 103.9396 256.1589 12.62265849522027,12.62265849,0.0001071,LEO
39075,GLOBALSTAR M096,2013,114.08,700.0,+,52.01,Active,1,LEO,Kazakhstan,Globalstar,Commercial,Communications,Soyuz,1 39075U 13005D   24135.57757829 -.00000073  00000+0  17316-3 0  9999,2 39075  52.0097   3.9686 0001165  87.4085 272.6915 12.62265554520957,12.62265554,0.0001165,LEO
39076,GLOBALSTAR M078,2013,114.08,700.0,+,51.99,Active,1,LEO,Kazakhstan,Globalstar,Commercial,Communications,Soyuz,1 39076U 13005E   24135.55169747 -.00000093  00000+0  61822-4 0  9998,2 39076  51.9871  89.1004 0001371  31.2687 328.8261 12.62268608519577,12.62268608,0.0001371,LEO
39077,GLOBALSTAR M095,2013,114.08,700.0,+,51.98,Active,1,LEO,Kazakhstan,Globalstar,Commercial,Communications,Soyuz,1 39077U 13005F   24135.26056631 -.00000086  00000+0  98182-4 0  9995,2 39077  51.9798  87.3762 0001134  54.5172 305.5800 12.62266076519399,12.62266076,0.0001134,LEO
52888,GLOBALSTAR M087,2022,107.66,715.0,+,51.98,Active,1,LEO,USA,USA,Commercial,Communications,Falcon,1 52888U 22064A   24135.48352093 -.00000051  00000+0  14749-3 0  9998,2 52888  51.9765 325.9047 0008563 279.5119  80.4814 13.37573486 93017,13.37573486,0.0008563,LEO
